ONEWEB-0216             
1 48801U 21045AL  23330.89061449  .00000029  00000+0  43368-4 0  9993
2 48801  87.8997  85.0137 0001394 108.6176 251.5105 13.15550573121593
ONEWEB-0239             
1 48802U 21045AM  23330.81930501  .00000222  00000+0  55634-3 0  9993
2 48802  87.8996  84.9851 0001078 147.9327 212.1869 13.15549387121622
ONEWEB-0249             
1 48967U 21060A   23331.18941638 -.00000007  00000+0 -52012-4 0  9997
2 48967  87.9093  54.4637 0001707 102.0833 258.0489 13.16593855118139
ONEWEB-0250             
1 48968U 21060B   23330.73765359 -.00000049  00000+0 -16225-3 0  9993
2 48968  87.9091  54.5377 0001565 111.7748 248.3550 13.16595091116766
ONEWEB-0252             
1 48970U 21060D   23330.76510875  .00000019  00000+0  16848-4 0  9997
2 48970  87.9093  54.5408 0001590  97.2745 262.8566 13.16593635116837
ONEWEB-0253             
1 48971U 21060E   23330.75454380  .00000067  00000+0  14208-3 0  9995
2 48971  87.9018  54.5744 0001409 109.7167 250.4116 13.16593386116763
ONEWEB-0254             
1 48972U 21060F   23330.76299672  .00000055  00000+0  11071-3 0  9990
2 48972  87.9095  54.5311 0001471 109.7885 250.3405 13.16593655116764
ONEWEB-0255             
1 48973U 21060G   23330.80099575 -.00000021  00000+0 -87936-4 0  9995
2 48973  87.9093  54.5593 0001726 104.4944 255.6378 13.16593184116849
